      2.10          N: GNSS NAV DATA                        RINEX VERSION / TYPE
fic2rin                                 11/13/2022 00:17:39 PGM / RUN BY / DATE
                                                            END OF HEADER
2  22 11 12  1 59 44.0 -.638247933239D-03  .170530256582D-11  .000000000000D+00
     .390000000000D+02 -.849687500000D+02  .438303971405D-08 -.185339447931D+01
    -.409968197346D-05  .199863926973D-01  .345706939697D-05  .515369586372D+04
     .525584000000D+06  .651925802231D-07 -.481185138790D+00  .450760126114D-06
     .966923677395D+00  .314125000000D+03 -.136420369981D+01 -.800247619240D-08
    -.287154818294D-09  .100000000000D+01  .223500000000D+04  .000000000000D+00
     .240000000000D+01  .000000000000D+00 -.176951289177D-07  .390000000000D+02
     .518400000000D+06  .400000000000D+01
12 22 11 12 20  0  0.0 -.303480308503D-03 -.454747350886D-11  .000000000000D+00
     .770000000000D+02  .812187500000D+02  .420446084696D-08  .888031815964D+00
     .418908894062D-05  .861539843027D-02  .951252877712D-05  .515371933365D+04
     .590400000000D+06 -.163912773132D-06 -.242651245501D+01  .111758708954D-07
     .967643956815D+00  .199906250000D+03  .131927710084D+01 -.790497213096D-08
    -.313941648358D-09  .100000000000D+01  .223500000000D+04  .000000000000D+00
     .240000000000D+01  .000000000000D+00 -.125728547573D-07  .770000000000D+02
     .583200000000D+06  .400000000000D+01
32 22 11 12 20  0  0.0 -.294082332402D-03 -.125055521494D-10  .000000000000D+00
     .180000000000D+02 -.896875000000D+01  .476341270097D-08 -.106215704914D+01
    -.337138772011D-06  .619637197815D-02  .707991421223D-05  .515366543961D+04
     .590400000000D+06  .100582838058D-06  .168352340752D+01  .856816768646D-07
     .958382602814D+00  .241125000000D+03 -.229795099184D+01 -.799854745732D-08
     .375372778640D-09  .100000000000D+01  .223500000000D+04  .000000000000D+00
     .240000000000D+01  .000000000000D+00  .465661287308D-09  .180000000000D+02
     .583200000000D+06  .400000000000D+01
31 22 11 12 20  0  0.0 -.199968460947D-03 -.125055521494D-11  .000000000000D+00
     .460000000000D+02  .125000000000D+00  .493877714846D-08  .107848027444D+01
     .275671482086D-06  .107050932711D-01  .728107988834D-05  .515360692978D+04
     .590400000000D+06 -.186264514923D-07  .276223230679D+01  .122934579849D-06
     .954869631799D+00  .236500000000D+03  .461647926358D+00 -.814533928608D-08
    -.441446959466D-09  .100000000000D+01  .223500000000D+04  .000000000000D+00
     .240000000000D+01  .000000000000D+00 -.135041773319D-07  .460000000000D+02
     .583200000000D+06  .400000000000D+01
29 22 11 12 20  0  0.0 -.566732604057D-03 -.272848410532D-11  .000000000000D+00
     .490000000000D+02  .705312500000D+02  .418946022212D-08 -.189317031634D+01
     .360980629921D-05  .213136500679D-02  .333786010742D-05  .515362331009D+04
     .590400000000D+06 -.651925802231D-07 -.137385691982D+01 -.745058059692D-08
     .978701025203D+00  .324343750000D+03  .248207185564D+01 -.805319259065D-08
     .296440919383D-10  .100000000000D+01  .223500000000D+04  .000000000000D+00
     .240000000000D+01  .000000000000D+00 -.102445483208D-07  .490000000000D+02
     .583200000000D+06  .400000000000D+01
16 22 11 12 20  0  0.0 -.526890158653D-03  .000000000000D+00  .000000000000D+00
     .600000000000D+02  .788125000000D+02  .419160316853D-08 -.897781161400D+00
     .421516597271D-05  .129854121478D-01  .832788646221D-05  .515374446487D+04
     .590400000000D+06  .232830643654D-06 -.240809040309D+01  .230967998505D-06
     .967436270724D+00  .222968750000D+03  .738417248557D+00 -.785675583685D-08
    -.247153152064D-09  .100000000000D+01  .223500000000D+04  .000000000000D+00
     .240000000000D+01  .000000000000D+00 -.102445483208D-07  .600000000000D+02
     .583200000000D+06  .400000000000D+01
10 22 11 12 20  0  0.0 -.116205774248D-04 -.170530256582D-11  .000000000000D+00
     .650000000000D+02 -.686875000000D+02  .394909306701D-08  .238778258393D+00
    -.355392694473D-05  .815733068157D-02  .852160155773D-05  .515368843842D+04
     .590400000000D+06  .130385160446D-07  .642148904697D+00  .162050127983D-06
     .976080880407D+00  .224218750000D+03 -.250050222279D+01 -.777960976626D-08
     .234652631367D-09  .100000000000D+01  .223500000000D+04  .000000000000D+00
     .240000000000D+01  .000000000000D+00  .232830643654D-08  .650000000000D+02
     .583200000000D+06  .400000000000D+01
8  22 11 12 20  0  0.0 -.935033895075D-04 -.193267624127D-11  .000000000000D+00
     .510000000000D+02  .772187500000D+02  .449733018900D-08 -.176795992596D+01
     .402703881264D-05  .775573006831D-02  .321492552757D-05  .515361556053D+04
     .590400000000D+06 -.223517417908D-07 -.147356028749D+01 -.689178705215D-07
     .961151684374D+00  .320468750000D+03  .165696673086D+00 -.812891003030D-08
     .123576576032D-09  .100000000000D+01  .223500000000D+04  .000000000000D+00
     .240000000000D+01  .000000000000D+00  .512227416039D-08  .510000000000D+02
     .583200000000D+06  .400000000000D+01
7  22 11 12 20  0  0.0  .288194976747D-03 -.454747350886D-11  .000000000000D+00
     .630000000000D+02 -.609375000000D+01  .505271046567D-08  .162678357537D+01
    -.366941094398D-06  .164674095577D-01  .756047666073D-05  .515361631584D+04
     .590400000000D+06 -.415369868279D-06  .274305703492D+01 -.391155481339D-07
     .950705470596D+00  .234125000000D+03 -.223751886272D+01 -.819212694926D-08
    -.319656172105D-09  .100000000000D+01  .223500000000D+04  .000000000000D+00
     .240000000000D+01  .000000000000D+00 -.111758708954D-07  .630000000000D+02
     .583200000000D+06  .400000000000D+01
4  22 11 12 20  0  0.0 -.875629484653D-04  .659383658785D-11  .000000000000D+00
     .400000000000D+01 -.293750000000D+01  .470091009749D-08 -.212887337464D+01
    -.262632966042D-06  .214182096533D-02  .730343163013D-05  .515373065376D+04
     .590400000000D+06 -.260770320892D-07  .172632408954D+01  .745058059692D-08
     .961503429860D+00  .243593750000D+03 -.312188659700D+01 -.790961518151D-08
     .440375486264D-09  .100000000000D+01  .223500000000D+04  .000000000000D+00
     .240000000000D+01  .000000000000D+00 -.465661287308D-08  .260000000000D+03
     .583200000000D+06  .400000000000D+01
9  22 11 12 20  0  0.0 -.269635580480D-03  .557065504836D-11  .000000000000D+00
     .910000000000D+02 -.593750000000D+01  .489127516982D-08 -.140440630954D+01
    -.217929482460D-06  .264375645202D-02  .746175646782D-05  .515371898079D+04
     .590400000000D+06 -.335276126862D-07  .167117508278D+01  .502914190292D-07
     .954660380385D+00  .237562500000D+03  .192355378920D+01 -.803354891527D-08
     .471805366873D-09  .100000000000D+01  .223500000000D+04  .000000000000D+00
     .240000000000D+01  .000000000000D+00  .931322574615D-09  .910000000000D+02
     .583200000000D+06  .400000000000D+01
30 22 11 12 20  0  0.0 -.536753796041D-03  .341060513165D-12  .000000000000D+00
     .510000000000D+02 -.403125000000D+01  .540308220292D-08  .151043742403D+01
    -.115483999252D-06  .595069001429D-02  .715255737305D-05  .515367860031D+04
     .590400000000D+06 -.316649675369D-07  .275213732502D+01  .119209289551D-06
     .935845744154D+00  .230343750000D+03 -.266278969842D+01 -.832641825731D-08
    -.337514058815D-09  .100000000000D+01  .223500000000D+04  .000000000000D+00
     .240000000000D+01  .000000000000D+00  .372529029846D-08  .510000000000D+02
     .583200000000D+06  .400000000000D+01
24 22 11 12 20  0  0.0  .617075711489D-04 -.159161572810D-10  .000000000000D+00
     .700000000000D+02 -.590625000000D+01  .529629204039D-08  .255003792510D+01
    -.430271029472D-06  .133976747748D-01  .701099634171D-05  .515366372108D+04
     .590400000000D+06 -.316649675369D-07  .265577280600D+01 -.240281224251D-06
     .934176984724D+00  .229656250000D+03  .858524272616D+00 -.803283459980D-08
    -.202508435289D-09  .100000000000D+01  .223500000000D+04  .000000000000D+00
     .240000000000D+01  .000000000000D+00  .279396772385D-08  .700000000000D+02
     .583200000000D+06  .400000000000D+01
27 22 11 12 20  0  0.0  .179409980774D-03 -.841282599140D-11  .000000000000D+00
     .860000000000D+02  .721250000000D+02  .422196157593D-08 -.177826185945D+01
     .381469726562D-05  .107532192487D-01  .340677797794D-05  .515366346550D+04
     .590400000000D+06  .104308128357D-06 -.145185692202D+01 -.132247805595D-06
     .969962200670D+00  .319468750000D+03  .684505310199D+00 -.795068832094D-08
     .985755346381D-10  .100000000000D+01  .223500000000D+04  .000000000000D+00
     .240000000000D+01  .000000000000D+00  .139698386192D-08  .860000000000D+02
     .583200000000D+06  .400000000000D+01
26 22 11 12 20  0  0.0  .235591083765D-03  .113686837722D-11  .000000000000D+00
     .102000000000D+03  .637187500000D+02  .499377943953D-08 -.658766786567D-02
     .331178307533D-05  .743618293200D-02  .865198671818D-05  .515359237480D+04
     .590400000000D+06  .596046447754D-07 -.255851300013D+01  .100582838058D-06
     .936089665263D+00  .197125000000D+03  .395217220144D+00 -.823784313923D-08
    -.331442377334D-09  .100000000000D+01  .223500000000D+04  .000000000000D+00
     .240000000000D+01  .000000000000D+00  .698491930962D-08  .102000000000D+03
     .583200000000D+06  .400000000000D+01
17 22 11 12 20  0  0.0  .677322503179D-03  .329691829393D-11  .000000000000D+00
     .550000000000D+02  .850312500000D+02  .415303013323D-08 -.178286776339D+01
     .462867319584D-05  .138777648099D-01  .255368649960D-05  .515366035461D+04
     .590400000000D+06  .117346644402D-06 -.138749234329D+01  .314787030220D-06
     .976546217093D+00  .342656250000D+03 -.146155169037D+01 -.802926302246D-08
     .207151485834D-10  .100000000000D+01  .223500000000D+04  .000000000000D+00
     .340000000000D+01  .000000000000D+00 -.111758708954D-07  .550000000000D+02
     .583200000000D+06  .400000000000D+01
